NORAD_CAT_ID,OBJECT_NAME,OBJECT_TYPE,EPOCH,MEAN_MOTION,ECCENTRICITY,INCLINATION,RA_OF_ASC_NODE,ARG_OF_PERICENTER,MEAN_ANOMALY,BSTAR,MEAN_MOTION_DOT,MEAN_MOTION_DDOT,TLE_LINE0,TLE_LINE1,TLE_LINE2,SEMIMAJOR_AXIS,PERIOD,APOGEE,PERIGEE,DECAYED
54191.0,STARLINK-4619,PAYLOAD,2024-04-09 18:50:15,15.08839462,0.0002113,53.2221,251.8626,89.2729,270.8505,6.0525e-05,6.75e-06,0.0,0 STARLINK-4619,1 54191U 22141AL  24100.78490358  .00000675  00000-0  60525-4 0  9991,2 54191  53.2221 251.8626 0002113  89.2729 270.8505 15.08839462 80710,6917.882,95.438,541.209,538.285,0.0
54191.0,STARLINK-4619,PAYLOAD,2024-04-10 09:08:43,15.08841321,0.0001707,53.2188,249.1873,93.0026,267.1162,8.6341e-05,1.086e-05,0.0,0 STARLINK-4619,1 54191U 22141AL  24101.38106375  .00001086  00000-0  86341-4 0  9992,2 54191  53.2188 249.1873 0001707  93.0026 267.1162 15.08841321 80576,6917.876,95.437,540.922,538.56,0.0
54191.0,STARLINK-4619,PAYLOAD,2024-04-10 18:41:02,15.08842591,0.0001638,53.2169,247.4025,92.6473,267.4707,0.00012318,1.673e-05,0.0,0 STARLINK-4619,1 54191U 22141AL  24101.77850329  .00001673  00000-0  12318-3 0  9994,2 54191  53.2169 247.4025 0001638  92.6473 267.4707 15.08842591 80634,6917.872,95.437,540.871,538.604,0.0
54191.0,STARLINK-4619,PAYLOAD,2024-04-11 02:37:57,15.08852433,0.0001449,53.2177,245.9157,91.0984,269.0174,6.8818e-05,8.08e-06,0.0,0 STARLINK-4619,1 54191U 22141AL  24102.10969783  .00000808  00000-0  68818-4 0  9993,2 54191  53.2177 245.9157 0001449  91.0984 269.0174 15.08852433 80915,6917.842,95.437,540.71,538.705,0.0
54191.0,STARLINK-4619,PAYLOAD,2024-04-11 08:59:31,15.08847768,0.0002332,53.2169,244.7263,85.1075,275.0183,0.00038353,5.822e-05,0.0,0 STARLINK-4619,1 54191U 22141AL  24102.37466534  .00005822  00000-0  38353-3 0  9999,2 54191  53.2169 244.7263 0002332  85.1075 275.0183 15.08847768 80954,6917.857,95.437,541.335,538.108,0.0
54191.0,STARLINK-4619,PAYLOAD,2024-04-11 13:45:40,15.08837834,0.0001512,53.217,243.8342,90.8777,269.2388,0.0001001,1.305e-05,0.0,0 STARLINK-4619,1 54191U 22141AL  24102.57338635  .00001305  00000-0  10010-3 0  9993,2 54191  53.2170 243.8342 0001512  90.8777 269.2388 15.08837834 80758,6917.887,95.438,540.798,538.706,0.0
54191.0,STARLINK-4619,PAYLOAD,2024-04-11 16:56:26,15.08841924,0.0001378,53.2163,243.2386,87.287,272.828,0.00017707,2.531e-05,0.0,0 STARLINK-4619,1 54191U 22141AL  24102.70586512  .00002531  00000-0  17707-3 0  9999,2 54191  53.2163 243.2386 0001378  87.2870 272.8280 15.08841924 81001,6917.875,95.437,540.693,538.786,0.0
54191.0,STARLINK-4619,PAYLOAD,2024-04-12 13:36:27,15.08841717,0.000239,53.2168,239.3724,88.4618,271.6648,0.00025483,3.77e-05,0.0,0 STARLINK-4619,1 54191U 22141AL  24103.56698790  .00003770  00000-0  25483-3 0  9992,2 54191  53.2168 239.3724 0002390  88.4618 271.6648 15.08841717 80909,6917.875,95.437,541.394,538.087,0.0
54191.0,STARLINK-4619,PAYLOAD,2024-04-12 15:11:50,15.0883697,0.0001712,53.2179,239.0761,88.2997,271.8192,4.0535e-05,3.57e-06,0.0,0 STARLINK-4619,1 54191U 22141AL  24103.63322763  .00000357  00000-0  40535-4 0  9998,2 54191  53.2179 239.0761 0001712  88.2997 271.8192 15.08836970 81142,6917.89,95.438,540.939,538.57,0.0
54191.0,STARLINK-4619,PAYLOAD,2024-04-13 13:27:15,15.08840899,0.0001911,53.2178,234.9139,85.8136,274.3075,0.00019727,2.853e-05,0.0,0 STARLINK-4619,1 54191U 22141AL  24104.56059044  .00002853  00000-0  19727-3 0  9991,2 54191  53.2178 234.9139 0001911  85.8136 274.3075 15.08840899 81056,6917.878,95.437,541.065,538.421,0.0
54191.0,STARLINK-4619,PAYLOAD,2024-04-13 15:02:38,15.08840346,0.0001629,53.2167,234.6157,84.7654,275.3524,0.00013561,1.871e-05,0.0,0 STARLINK-4619,1 54191U 22141AL  24104.62682959  .00001871  00000-0  13561-3 0  9994,2 54191  53.2167 234.6157 0001629  84.7654 275.3524 15.08840346 81068,6917.879,95.438,540.871,538.617,0.0
54191.0,STARLINK-4619,PAYLOAD,2024-04-14 11:42:38,15.08842442,0.0001669,53.2167,230.7503,87.1152,273.0031,0.00022405,3.28e-05,0.0,0 STARLINK-4619,1 54191U 22141AL  24105.48795078  .00003280  00000-0  22405-3 0  9999,2 54191  53.2167 230.7503 0001669  87.1152 273.0031 15.08842442 81421,6917.873,95.437,540.893,538.583,0.0
54191.0,STARLINK-4619,PAYLOAD,2024-04-14 14:53:25,15.08844382,0.0001602,53.2165,230.1548,88.6448,271.4728,0.00022561,3.305e-05,0.0,0 STARLINK-4619,1 54191U 22141AL  24105.62042970  .00003305  00000-0  22561-3 0  9992,2 54191  53.2165 230.1548 0001602  88.6448 271.4728 15.08844382 81210,6917.867,95.437,540.84,538.624,0.0
54191.0,STARLINK-4619,PAYLOAD,2024-04-15 13:08:49,15.08839601,0.0001577,53.2171,225.9881,107.5858,252.5307,9.4093e-05,1.21e-05,0.0,0 STARLINK-4619,1 54191U 22141AL  24106.54778939  .00001210  00000-0  94093-4 0  9998,2 54191  53.2171 225.9881 0001577 107.5858 252.5307 15.08839601 81587,6917.882,95.438,540.838,538.656,0.0
54191.0,STARLINK-4619,PAYLOAD,2024-04-16 14:34:58,15.08846617,0.0001203,53.2174,221.234,80.031,280.0818,0.00012481,1.699e-05,0.0,0 STARLINK-4619,1 54191U 22141AL  24107.60762632  .00001699  00000-0  12481-3 0  9990,2 54191  53.2174 221.2340 0001203  80.0310 280.0818 15.08846617 81514,6917.86,95.437,540.557,538.893,0.0
54191.0,STARLINK-4619,PAYLOAD,2024-04-17 12:50:22,15.08843026,0.0001133,53.2162,217.0697,84.785,275.3271,0.00014226,1.977e-05,0.0,0 STARLINK-4619,1 54191U 22141AL  24108.53498675  .00001977  00000-0  14226-3 0  9994,2 54191  53.2162 217.0697 0001133  84.7850 275.3271 15.08843026 81882,6917.871,95.437,540.52,538.952,0.0
54191.0,STARLINK-4619,PAYLOAD,2024-04-17 14:25:45,15.0884286,0.0001175,53.2163,216.772,82.7479,277.3647,0.00012589,1.716e-05,0.0,0 STARLINK-4619,1 54191U 22141AL  24108.60122472  .00001716  00000-0  12589-3 0  9992,2 54191  53.2163 216.7720 0001175  82.7479 277.3647 15.08842860 81667,6917.872,95.437,540.549,538.924,0.0
54191.0,STARLINK-4619,PAYLOAD,2024-04-17 19:11:54,15.08852761,0.0001147,53.216,215.8806,59.4815,300.629,0.00021451,3.129e-05,0.0,0 STARLINK-4619,1 54191U 22141AL  24108.79993672  .00003129  00000-0  21451-3 0  9998,2 54191  53.2160 215.8806 0001147  59.4815 300.6290 15.08852761 81927,6917.841,95.437,540.5,538.913,0.0
54191.0,STARLINK-4619,PAYLOAD,2024-04-18 12:41:10,15.08827651,0.0001382,53.2162,212.6085,69.4226,290.6915,-0.00020922,-3.615e-05,0.0,0 STARLINK-4619,1 54191U 22141AL  24109.52859447 -.00003615  00000-0 -20922-3 0  9995,2 54191  53.2162 212.6085 0001382  69.4226 290.6915 15.08827651 82036,6917.918,95.438,540.739,538.827,0.0
54191.0,STARLINK-4619,PAYLOAD,2024-04-18 14:16:33,15.08829057,0.0001389,53.2166,212.3143,77.6403,282.4745,-0.0001927,-3.352e-05,0.0,0 STARLINK-4619,1 54191U 22141AL  24109.59483402 -.00003352  00000-0 -19270-3 0  9998,2 54191  53.2166 212.3143 0001389  77.6403 282.4745 15.08829057 81814,6917.914,95.438,540.74,538.818,0.0
54191.0,STARLINK-4619,PAYLOAD,2024-04-19 14:07:20,15.08843593,0.0001348,53.2171,207.8492,91.2735,268.8411,0.00020118,2.916e-05,0.0,0 STARLINK-4619,1 54191U 22141AL  24110.58843437  .00002916  00000-0  20118-3 0  9993,2 54191  53.2171 207.8492 0001348  91.2735 268.8411 15.08843593 81966,6917.869,95.437,540.667,538.802,0.0
54191.0,STARLINK-4619,PAYLOAD,2024-04-20 12:22:44,15.08841139,0.0001484,53.2179,203.6867,91.0922,269.024,0.00025099,3.709e-05,0.0,0 STARLINK-4619,1 54191U 22141AL  24111.51579840  .00003709  00000-0  25099-3 0  9995,2 54191  53.2179 203.6867 0001484  91.0922 269.0240 15.08841139 82330,6917.877,95.437,540.769,538.715,0.0
54191.0,STARLINK-4619,PAYLOAD,2024-04-21 12:13:32,15.08841473,0.0001518,53.2176,199.2299,90.0216,270.095,0.00027419,4.079e-05,0.0,0 STARLINK-4619,1 54191U 22141AL  24112.50939882  .00004079  00000-0  27419-3 0  9990,2 54191  53.2176 199.2299 0001518  90.0216 270.0950 15.08841473 82251,6917.876,95.437,540.791,538.691,0.0
54191.0,STARLINK-4619,PAYLOAD,2024-04-22 10:28:55,15.08838036,0.0001353,53.2172,195.0546,118.7015,241.4113,-2.753e-06,-3.32e-06,0.0,0 STARLINK-4619,1 54191U 22141AL  24113.43675825 -.00000332  00000-0 -27530-5 0  9993,2 54191  53.2172 195.0546 0001353 118.7015 241.4113 15.08838036 82623,6917.886,95.438,540.687,538.815,0.0
54191.0,STARLINK-4619,PAYLOAD,2024-04-22 12:04:19,15.08833826,0.0001522,53.2177,194.7592,128.7232,231.3896,2.8024e-05,1.58e-06,0.0,0 STARLINK-4619,1 54191U 22141AL  24113.50299946  .00000158  00000-0  28024-4 0  9999,2 54191  53.2177 194.7592 0001522 128.7232 231.3896 15.08833826 82409,6917.899,95.438,540.817,538.711,0.0
54191.0,STARLINK-4619,PAYLOAD,2024-04-23 11:55:06,15.08840384,0.000144,53.2173,190.3005,117.8893,242.2245,-5.8239e-05,-1.215e-05,0.0,0 STARLINK-4619,1 54191U 22141AL  24114.49660260 -.00001215  00000-0 -58239-4 0  9997,2 54191  53.2173 190.3005 0001440 117.8893 242.2245 15.08840384 82784,6917.879,95.438,540.74,538.748,0.0
54191.0,STARLINK-4619,PAYLOAD,2024-04-24 10:10:30,15.0883068,0.000139,53.2166,186.1399,105.8312,254.2834,0.00012632,1.723e-05,0.0,0 STARLINK-4619,1 54191U 22141AL  24115.42396707  .00001723  00000-0  12632-3 0  9991,2 54191  53.2166 186.1399 0001390 105.8312 254.2834 15.08830680 82697,6917.909,95.438,540.735,538.812,0.0
54191.0,STARLINK-4619,PAYLOAD,2024-04-25 10:01:18,15.08832693,0.0001312,53.2164,181.679,95.353,264.7612,6.0056e-05,6.68e-06,0.0,0 STARLINK-4619,1 54191U 22141AL  24116.41757300  .00000668  00000-0  60056-4 0  9992,2 54191  53.2164 181.6790 0001312  95.3530 264.7612 15.08832693 82842,6917.903,95.438,540.675,538.86,0.0
54191.0,STARLINK-4619,PAYLOAD,2024-04-26 03:30:32,15.08837245,0.000132,53.2169,178.4131,92.2754,267.8389,7.2935e-05,8.73e-06,0.0,0 STARLINK-4619,1 54191U 22141AL  24117.14621265  .00000873  00000-0  72935-4 0  9990,2 54191  53.2169 178.4131 0001320  92.2754 267.8389 15.08837245 83184,6917.889,95.438,540.667,538.841,0.0
54191.0,STARLINK-4619,PAYLOAD,2024-04-26 11:27:28,15.08842133,0.0001332,53.2172,176.9283,89.0941,271.0204,0.00010617,1.402e-05,0.0,0 STARLINK-4619,1 54191U 22141AL  24117.47740825  .00001402  00000-0  10617-3 0  9997,2 54191  53.2172 176.9283 0001332  89.0941 271.0204 15.08842133 83000,6917.874,95.437,540.66,538.817,0.0
